CSS (TIANHE)            
1 48274U 21035A   24254.14307590  .00037689  00000+0  39451-3 0  9999
2 48274  41.4688 285.2471 0001324  84.3940 275.7051 15.63680732192386
